NORAD_CAT_ID,OBJECT_NAME,OBJECT_TYPE,EPOCH,MEAN_MOTION,ECCENTRICITY,INCLINATION,RA_OF_ASC_NODE,ARG_OF_PERICENTER,MEAN_ANOMALY,BSTAR,MEAN_MOTION_DOT,MEAN_MOTION_DDOT,TLE_LINE0,TLE_LINE1,TLE_LINE2,SEMIMAJOR_AXIS,PERIOD,APOGEE,PERIGEE,DECAYED
49133.0,STARLINK-3077,PAYLOAD,2022-02-04 22:00:00,14.98330636,0.0003309,70.0002,100.7861,273.5799,173.2359,-0.00021623,-2.672e-05,0.0,0 STARLINK-3077,1 49133U 21082D   22035.91667824 -.00002672  00000-0 -21623-3 0  9994,2 49133  70.0002 100.7861 0003309 273.5799 173.2359 14.98330636 22222,6950.191,96.107,574.356,569.756,0.0
49133.0,STARLINK-3077,PAYLOAD,2022-02-05 14:00:01,14.98305329,0.0003323,70.0004,99.1049,277.1697,164.63,0.0038551,0.00046181,0.0,0 STARLINK-3077,1 49133U 21082D   22036.58334491  .00046181  00000-0  38551-2 0  9997,2 49133  70.0004  99.1049 0003323 277.1697 164.6300 14.98305329  3574,6950.269,96.109,574.444,569.825,0.0
49133.0,STARLINK-3077,PAYLOAD,2022-02-05 22:00:01,14.98318961,0.0003292,70.0002,98.2642,273.0913,166.2491,0.0012194,0.00014483,0.0,0 STARLINK-3077,1 49133U 21082D   22036.91668981  .00014483  00000-0  12194-2 0  9993,2 49133  70.0002  98.2642 0003292 273.0913 166.2491 14.98318961 22376,6950.227,96.108,574.38,569.804,0.0
49133.0,STARLINK-3077,PAYLOAD,2022-02-06 14:00:01,14.98291925,0.0003273999999999,70.0004,96.5832,277.3723,156.9238,0.0037861,0.00045331,0.0,0 STARLINK-3077,1 49133U 21082D   22037.58335648  .00045331  00000-0  37861-2 0  9992,2 49133  70.0004  96.5832 0003274 277.3723 156.9238 14.98291925 22472,6950.311,96.109,574.451,569.9,0.0
49133.0,STARLINK-3077,PAYLOAD,2022-02-06 22:00:00,14.98298833,0.0003253,70.0004,95.7427,273.2648,158.4277,0.0016774,0.00019963,0.0,0 STARLINK-3077,1 49133U 21082D   22037.91667824  .00019963  00000-0  16774-2 0  9995,2 49133  70.0004  95.7427 0003253 273.2648 158.4277 14.98298833  3576,6950.2890000000025,96.109,574.415,569.893,0.0
49133.0,STARLINK-3077,PAYLOAD,2022-02-07 06:00:00,14.98343693,0.0003304,70.0007,94.9024,272.4627,156.6755,-0.0029529,-0.00035164,0.0,0 STARLINK-3077,1 49133U 21082D   22038.25001157 -.00035164  00000-0 -29529-2 0  9999,2 49133  70.0007  94.9024 0003304 272.4627 156.6755 14.98343693 22575,6950.151,96.106,574.312,569.719,0.0
49133.0,STARLINK-3077,PAYLOAD,2022-02-07 14:00:01,14.98302671,0.0003309,70.0006,94.0619,277.9751,148.6494,0.0036201,0.0004334,0.0,0 STARLINK-3077,1 49133U 21082D   22038.58334491  .00043340  00000-0  36201-2 0  9993,2 49133  70.0006  94.0619 0003309 277.9751 148.6494 14.98302671  3579,6950.276999999999,96.109,574.442,569.8430000000002,0.0
49133.0,STARLINK-3077,PAYLOAD,2022-02-07 22:00:00,14.98305718,0.0003248,70.0006,93.2215,273.7607,150.3384,0.0021765,0.00025957,0.0,0 STARLINK-3077,1 49133U 21082D   22038.91667824  .00025957  00000-0  21765-2 0  9992,2 49133  70.0006  93.2215 0003248 273.7607 150.3384 14.98305718 22673,6950.268,96.109,574.39,569.876,0.0
49133.0,STARLINK-3077,PAYLOAD,2022-02-08 14:00:01,14.98314214,0.0003298,70.0007,91.5407,279.0408,140.0125,0.0032517,0.00038907,0.0,0 STARLINK-3077,1 49133U 21082D   22039.58334491  .00038907  00000-0  32517-2 0  9993,2 49133  70.0007  91.5407 0003298 279.0408 140.0125 14.98314214  3580,6950.2419999999975,96.108,574.399,569.815,0.0
49133.0,STARLINK-3077,PAYLOAD,2022-02-08 22:00:01,14.98311355,0.0003218,70.0007,90.7003,274.2877,142.3172,0.0027325,0.00032648,0.0,0 STARLINK-3077,1 49133U 21082D   22039.91668981  .00032648  00000-0  27325-2 0  9991,2 49133  70.0007  90.7003 0003218 274.2877 142.3172 14.98311355 22820,6950.251,96.108,574.352,569.879,0.0
49133.0,STARLINK-3077,PAYLOAD,2022-02-09 14:00:01,14.98326764,0.0003288,70.0009,89.0193,279.7392,131.7793,0.0028397,0.00033952,0.0,0 STARLINK-3077,1 49133U 21082D   22040.58334491  .00033952  00000-0  28397-2 0  9991,2 49133  70.0009  89.0193 0003288 279.7392 131.7793 14.98326764  3608,6950.203,96.107,574.3530000000002,569.783,0.0
49133.0,STARLINK-3077,PAYLOAD,2022-02-09 22:00:00,14.98317558,0.0003237,70.0008,88.1789,274.2583,134.7631,0.0033296,0.0003985,0.0,0 STARLINK-3077,1 49133U 21082D   22040.91667824  .00039850  00000-0  33296-2 0  9994,2 49133  70.0008  88.1789 0003237 274.2583 134.7631 14.98317558 22970,6950.231,96.108,574.346,569.847,0.0
49133.0,STARLINK-3077,PAYLOAD,2022-02-10 14:00:01,14.98309034,0.0003451,70.001,86.4979,279.0457,125.0243,0.0024345,0.00029061,0.0,0 STARLINK-3077,1 49133U 21082D   22041.58335648  .00029061  00000-0  24345-2 0  9992,2 49133  70.0010  86.4979 0003451 279.0457 125.0243 14.98309034 23070,6950.2580000000025,96.108,574.521,569.724,0.0
49133.0,STARLINK-3077,PAYLOAD,2022-02-10 22:00:00,14.98294557,0.0003406,70.0009,85.6575,273.6141,127.8746,0.0039256,0.0004702,0.0,0 STARLINK-3077,1 49133U 21082D   22041.91667824  .00047020  00000-0  39256-2 0  9995,2 49133  70.0009  85.6575 0003406 273.6141 127.8746 14.98294557  3564,6950.302,96.109,574.535,569.8,0.0
49133.0,STARLINK-3077,PAYLOAD,2022-02-11 05:49:38,14.98331051,0.0003195,69.9989,84.835,276.5215,83.5581,-2.6998e-05,-4.15e-06,0.0,0 STARLINK-3077,1 49133U 21082D   22042.24280394 -.00000415  00000-0 -26998-4 0  9995,2 49133  69.9989  84.8350 0003195 276.5215  83.5581 14.98331051 23174,6950.19,96.107,574.275,569.8340000000002,0.0
49133.0,STARLINK-3077,PAYLOAD,2022-02-11 12:14:10,14.98333525,0.0003262,69.9991,84.1621,275.3777,84.70100000000002,-7.1802e-06,-1.79e-06,0.0,0 STARLINK-3077,1 49133U 21082D   22042.50984131 -.00000179  00000-0 -71802-5 0  9996,2 49133  69.9991  84.1621 0003262 275.3777  84.7010 14.98333525 23219,6950.182,96.107,574.314,569.78,0.0
49133.0,STARLINK-3077,PAYLOAD,2022-02-11 22:00:01,14.98310105,0.0003486,70.0009,83.13600000000002,273.1355,120.8818,0.0047979,0.00057599,0.0,0 STARLINK-3077,1 49133U 21082D   22042.91668981  .00057599  00000-0  47979-2 0  9994,2 49133  70.0009  83.1360 0003486 273.1355 120.8818 14.98310105  3582,6950.254,96.108,574.5419999999998,569.697,0.0
49133.0,STARLINK-3077,PAYLOAD,2022-02-12 06:00:00,14.98379331,0.0003511,70.0012,82.2956,273.973,117.4596,-0.0048596,-0.00057679,0.0,0 STARLINK-3077,1 49133U 21082D   22043.25001157 -.00057679  00000-0 -48596-2 0  9995,2 49133  70.0012  82.2956 0003511 273.9730 117.4596 14.98379331 23326,6950.04,96.104,574.346,569.465,0.0
49133.0,STARLINK-3077,PAYLOAD,2022-02-12 14:00:01,14.98327423,0.0003483,70.0008,81.455,278.5751,110.3765,0.00061503,7.253e-05,0.0,0 STARLINK-3077,1 49133U 21082D   22043.58334491  .00007253  00000-0  61503-3 0  9996,2 49133  70.0008  81.4550 0003483 278.5751 110.3765 14.98327423  3585,6950.201,96.107,574.487,569.645,0.0
49133.0,STARLINK-3077,PAYLOAD,2022-02-12 22:00:00,14.98294464,0.0003409,70.0009,80.6145,273.2546,113.1886,0.0051774,0.00062178,0.0,0 STARLINK-3077,1 49133U 21082D   22043.91667824  .00062178  00000-0  51774-2 0  9997,2 49133  70.0009  80.6145 0003409 273.2546 113.1886 14.98294464 23427,6950.303000000001,96.109,574.5369999999998,569.798,0.0
49133.0,STARLINK-3077,PAYLOAD,2022-02-13 14:00:01,14.98328056,0.0003473,70.0006,78.9336,279.0963,102.2982,0.0012378,0.00014707,0.0,0 STARLINK-3077,1 49133U 21082D   22044.58334491  .00014707  00000-0  12378-2 0  9994,2 49133  70.0006  78.9336 0003473 279.0963 102.2982 14.98328056 23526,6950.199000000001,96.107,574.4780000000002,569.65,0.0
49133.0,STARLINK-3077,PAYLOAD,2022-02-14 14:00:01,14.98350021,0.0003384,70.0003,76.4122,280.1591,93.7147,-0.0032796,-0.00039029,0.0,0 STARLINK-3077,1 49133U 21082D   22045.58334491 -.00039029  00000-0 -32796-2 0  9997,2 49133  70.0003  76.4122 0003384 280.1591  93.7147 14.98350021 23670,6950.130999999999,96.106,574.3480000000002,569.644,0.0
49133.0,STARLINK-3077,PAYLOAD,2022-02-14 22:00:00,14.98281213,0.0003237,70.0003,75.5717,274.2525,97.1215,0.0056143,0.0006746,0.0,0 STARLINK-3077,1 49133U 21082D   22045.91667824  .00067460  00000-0  56143-2 0  9993,2 49133  70.0003  75.5717 0003237 274.2525  97.1215 14.98281213  3586,6950.344,96.11,574.4590000000002,569.9590000000002,0.0
49133.0,STARLINK-3077,PAYLOAD,2022-02-15 06:00:00,14.98337661,0.0003288,70.0005,74.7312,276.625,92.1968,-0.0029182,-0.00034748,0.0,0 STARLINK-3077,1 49133U 21082D   22046.25001157 -.00034748  00000-0 -29182-2 0  9990,2 49133  70.0005  74.7312 0003288 276.6250  92.1968 14.98337661 23779,6950.169,96.107,574.319,569.749,0.0
49133.0,STARLINK-3077,PAYLOAD,2022-02-15 14:00:01,14.98325125,0.0003298,70.0,73.8905,280.8529,85.4417,-0.00018374,-2.284e-05,0.0,0 STARLINK-3077,1 49133U 21082D   22046.58334491 -.00002284  00000-0 -18374-3 0  9998,2 49133  70.0000  73.8905 0003298 280.8529  85.4417 14.98325125  3571,6950.208000000001,96.107,574.365,569.781,0.0
49133.0,STARLINK-3077,PAYLOAD,2022-02-15 22:00:01,14.98285387,0.0003225,70.0,73.05,274.3349,89.5078,0.0057967,0.00069685,0.0,0 STARLINK-3077,1 49133U 21082D   22046.91668981  .00069685  00000-0  57967-2 0  9995,2 49133  70.0000  73.0500 0003225 274.3349  89.5078 14.98285387 23870,6950.331,96.11,574.437,569.9540000000002,0.0
49133.0,STARLINK-3077,PAYLOAD,2022-02-16 14:00:01,14.98333555,0.0003323,69.9998,71.3687,280.4512,78.2648,-0.00081643,-9.822e-05,0.0,0 STARLINK-3077,1 49133U 21082D   22047.58334491 -.00009822  00000-0 -81643-3 0  9993,2 49133  69.9998  71.3687 0003323 280.4512  78.2648 14.98333555 23968,6950.182,96.107,574.356,569.737,0.0
49133.0,STARLINK-3077,PAYLOAD,2022-02-16 22:00:00,14.98290246,0.0003267,69.9999,70.5281,273.8831,82.3258,0.0059443,0.00071489,0.0,0 STARLINK-3077,1 49133U 21082D   22047.91667824  .00071489  00000-0  59443-2 0  9997,2 49133  69.9999  70.5281 0003267 273.8831  82.3258 14.98290246  3585,6950.316,96.11,574.451,569.91,0.0
49133.0,STARLINK-3077,PAYLOAD,2022-02-17 14:00:01,14.98332122,0.0003088,69.9997,68.8552,274.0431,77.0909,-0.00028772,-3.525e-05,0.0,0 STARLINK-3077,1 49133U 21082D   22048.58334491 -.00003525  00000-0 -28772-3 0  9992,2 49133  69.9997  68.8552 0003088 274.0431  77.0909 14.98332122  3588,6950.186,96.107,574.198,569.905,0.0
